STARLINK-36216          
1 67217U 25304AB  26013.11685840  .00060803  00000+0  98208-3 0  9998
2 67217  69.9999 319.6419 0003598 263.2150  96.8628 15.52558587  5435
STARLINK-36211          
1 67218U 25304AC  26013.18094772  .00040502  00000+0  65749-3 0  9992
2 67218  70.0003 319.4638 0003608 264.1677  95.9098 15.52527205  5414
DISKSAT C               
1 67219U 25305A   26012.66253284  .00009830  00000+0  67236-3 0  9993
2 67219  45.0014 187.1105 0002054  13.7028 346.3902 15.06375821  3846
DISKSAT B               
1 67220U 25305B   26012.86234403  .00007032  00000+0  48667-3 0  9998
2 67220  45.0012 186.0648 0001748  19.6825 340.4117 15.06307112  3879
DISKSAT D               
1 67221U 25305C   26012.73046391  .00008751  00000+0  60204-3 0  9992
2 67221  45.0015 186.7713 0002111  28.8392 331.2599 15.06274906  3853
DISKSAT A               
1 67222U 25305D   26012.86424500  .00007411  00000+0  51293-3 0  9999
2 67222  45.0017 186.0789 0001980  38.1189 321.9826 15.06236773  3863
ELECTRON KICK STAGE R/B 
1 67223U 25305E   26013.15583425  .00091515  10675-4  79039-3 0  9995
2 67223  44.9833 174.7874 0162940 289.8047  68.5343 15.53645056  4037
TJS-23                  
1 67226U 25306A   26013.02905987  .00000042  00000+0  00000+0 0  9995
2 67226   5.9408 298.2890 0000380  52.8309 307.3562  1.00269726   332
CZ-5 R/B                
1 67227U 25306B   26012.07589392  .00008109  00000+0  22316-2 0  9997
2 67227  16.2838 291.5585 7578092 192.8297 122.4088  1.92501043   454
QPS-SAR-15              
1 67228U 25307A   26013.04661593  .00003830  00000+0  33942-3 0  9995
2 67228  42.0082 358.8894 0007870  54.7303 305.4257 14.97354691  3415
ELECTRON R/B            
1 67229U 25307B   26013.18889758  .00881196  29979-3  15451-2 0  9999
2 67229  41.9926 344.0589 0147343  44.6636 316.5981 15.84255775  3592
ELECTRON KICK STAGE R/B 
1 67230U 25307C   26013.19355706  .02618338  81310-5  16302-2 0  9996
2 67230  41.9987 342.3281 0086024  79.7601 281.2951 16.08676118  2016
