CCSDS_OMM_VERS = 2.0
CREATION_DATE  = 
ORIGINATOR     = 

OBJECT_NAME    = STARLINK-36216
OBJECT_ID      = 2025-304AB
CENTER_NAME    = EARTH
REF_FRAME      = TEME
TIME_SYSTEM    = UTC
MEAN_ELEMENT_THEORY = SGP/SGP4

EPOCH          = 2026-01-13T02:48:16.565760
MEAN_MOTION    = 15.52558587
ECCENTRICITY   = .0003598
INCLINATION    = 69.9999
RA_OF_ASC_NODE = 319.6419
ARG_OF_PERICENTER = 263.2150
MEAN_ANOMALY   = 96.8628

EPHEMERIS_TYPE = 0
CLASSIFICATION_TYPE = U
NORAD_CAT_ID   = 67217
ELEMENT_SET_NO = 999
REV_AT_EPOCH   = 543
BSTAR          = .98208E-3
MEAN_MOTION_DOT = .60803E-3
MEAN_MOTION_DDOT = 0

CCSDS_OMM_VERS = 2.0
CREATION_DATE  = 
ORIGINATOR     = 

OBJECT_NAME    = STARLINK-36211
OBJECT_ID      = 2025-304AC
CENTER_NAME    = EARTH
REF_FRAME      = TEME
TIME_SYSTEM    = UTC
MEAN_ELEMENT_THEORY = SGP/SGP4

EPOCH          = 2026-01-13T04:20:33.883008
MEAN_MOTION    = 15.52527205
ECCENTRICITY   = .0003608
INCLINATION    = 70.0003
RA_OF_ASC_NODE = 319.4638
ARG_OF_PERICENTER = 264.1677
MEAN_ANOMALY   = 95.9098

EPHEMERIS_TYPE = 0
CLASSIFICATION_TYPE = U
NORAD_CAT_ID   = 67218
ELEMENT_SET_NO = 999
REV_AT_EPOCH   = 541
BSTAR          = .65749E-3
MEAN_MOTION_DOT = .40502E-3
MEAN_MOTION_DDOT = 0

CCSDS_OMM_VERS = 2.0
CREATION_DATE  = 
ORIGINATOR     = 

OBJECT_NAME    = DISKSAT C
OBJECT_ID      = 2025-305A
CENTER_NAME    = EARTH
REF_FRAME      = TEME
TIME_SYSTEM    = UTC
MEAN_ELEMENT_THEORY = SGP/SGP4

EPOCH          = 2026-01-12T15:54:02.837376
MEAN_MOTION    = 15.06375821
ECCENTRICITY   = .0002054
INCLINATION    = 45.0014
RA_OF_ASC_NODE = 187.1105
ARG_OF_PERICENTER = 13.7028
MEAN_ANOMALY   = 346.3902

EPHEMERIS_TYPE = 0
CLASSIFICATION_TYPE = U
NORAD_CAT_ID   = 67219
ELEMENT_SET_NO = 999
REV_AT_EPOCH   = 384
BSTAR          = .67236393E-3
MEAN_MOTION_DOT = .983E-4
MEAN_MOTION_DDOT = 0

CCSDS_OMM_VERS = 2.0
CREATION_DATE  = 
ORIGINATOR     = 

OBJECT_NAME    = DISKSAT B
OBJECT_ID      = 2025-305B
CENTER_NAME    = EARTH
REF_FRAME      = TEME
TIME_SYSTEM    = UTC
MEAN_ELEMENT_THEORY = SGP/SGP4

EPOCH          = 2026-01-12T20:41:46.524192
MEAN_MOTION    = 15.06307112
ECCENTRICITY   = .0001748
INCLINATION    = 45.0012
RA_OF_ASC_NODE = 186.0648
ARG_OF_PERICENTER = 19.6825
MEAN_ANOMALY   = 340.4117

EPHEMERIS_TYPE = 0
CLASSIFICATION_TYPE = U
NORAD_CAT_ID   = 67220
ELEMENT_SET_NO = 999
REV_AT_EPOCH   = 387
BSTAR          = .48667E-3
MEAN_MOTION_DOT = .7032E-4
MEAN_MOTION_DDOT = 0

CCSDS_OMM_VERS = 2.0
CREATION_DATE  = 
ORIGINATOR     = 

OBJECT_NAME    = DISKSAT D
OBJECT_ID      = 2025-305C
CENTER_NAME    = EARTH
REF_FRAME      = TEME
TIME_SYSTEM    = UTC
MEAN_ELEMENT_THEORY = SGP/SGP4

EPOCH          = 2026-01-12T17:31:52.081824
MEAN_MOTION    = 15.06274906
ECCENTRICITY   = .00021113
INCLINATION    = 45.0015
RA_OF_ASC_NODE = 186.7713
ARG_OF_PERICENTER = 28.8392
MEAN_ANOMALY   = 331.2599

EPHEMERIS_TYPE = 0
CLASSIFICATION_TYPE = U
NORAD_CAT_ID   = 67221
ELEMENT_SET_NO = 999
REV_AT_EPOCH   = 385
BSTAR          = .60204129E-3
MEAN_MOTION_DOT = .8751E-4
MEAN_MOTION_DDOT = 0

CCSDS_OMM_VERS = 2.0
CREATION_DATE  = 
ORIGINATOR     = 

OBJECT_NAME    = DISKSAT A
OBJECT_ID      = 2025-305D
CENTER_NAME    = EARTH
REF_FRAME      = TEME
TIME_SYSTEM    = UTC
MEAN_ELEMENT_THEORY = SGP/SGP4

EPOCH          = 2026-01-12T20:44:30.768000
MEAN_MOTION    = 15.06236773
ECCENTRICITY   = .000198
INCLINATION    = 45.0017
RA_OF_ASC_NODE = 186.0789
ARG_OF_PERICENTER = 38.1189
MEAN_ANOMALY   = 321.9826

EPHEMERIS_TYPE = 0
CLASSIFICATION_TYPE = U
NORAD_CAT_ID   = 67222
ELEMENT_SET_NO = 999
REV_AT_EPOCH   = 386
BSTAR          = .51293E-3
MEAN_MOTION_DOT = .7411E-4
MEAN_MOTION_DDOT = 0

CCSDS_OMM_VERS = 2.0
CREATION_DATE  = 
ORIGINATOR     = 

OBJECT_NAME    = ELECTRON KICK STAGE R/B
OBJECT_ID      = 2025-305E
CENTER_NAME    = EARTH
REF_FRAME      = TEME
TIME_SYSTEM    = UTC
MEAN_ELEMENT_THEORY = SGP/SGP4

EPOCH          = 2026-01-13T03:44:24.079200
MEAN_MOTION    = 15.53645056
ECCENTRICITY   = .016294
INCLINATION    = 44.9833
RA_OF_ASC_NODE = 174.7874
ARG_OF_PERICENTER = 289.8047
MEAN_ANOMALY   = 68.5343

EPHEMERIS_TYPE = 0
CLASSIFICATION_TYPE = U
NORAD_CAT_ID   = 67223
ELEMENT_SET_NO = 999
REV_AT_EPOCH   = 403
BSTAR          = .79039E-3
MEAN_MOTION_DOT = .91515E-3
MEAN_MOTION_DDOT = .10675E-4

CCSDS_OMM_VERS = 2.0
CREATION_DATE  = 
ORIGINATOR     = 

OBJECT_NAME    = TJS-23
OBJECT_ID      = 2025-306A
CENTER_NAME    = EARTH
REF_FRAME      = TEME
TIME_SYSTEM    = UTC
MEAN_ELEMENT_THEORY = SGP/SGP4

EPOCH          = 2026-01-13T00:41:50.772768
MEAN_MOTION    = 1.00269726
ECCENTRICITY   = .000038
INCLINATION    = 5.9408
RA_OF_ASC_NODE = 298.2890
ARG_OF_PERICENTER = 52.8309
MEAN_ANOMALY   = 307.3562

EPHEMERIS_TYPE = 0
CLASSIFICATION_TYPE = U
NORAD_CAT_ID   = 67226
ELEMENT_SET_NO = 999
REV_AT_EPOCH   = 33
BSTAR          = 0
MEAN_MOTION_DOT = .42E-6
MEAN_MOTION_DDOT = 0

CCSDS_OMM_VERS = 2.0
CREATION_DATE  = 
ORIGINATOR     = 

OBJECT_NAME    = CZ-5 R/B
OBJECT_ID      = 2025-306B
CENTER_NAME    = EARTH
REF_FRAME      = TEME
TIME_SYSTEM    = UTC
MEAN_ELEMENT_THEORY = SGP/SGP4

EPOCH          = 2026-01-12T01:49:17.234688
MEAN_MOTION    = 1.92501043
ECCENTRICITY   = .75780927
INCLINATION    = 16.2838
RA_OF_ASC_NODE = 291.5585
ARG_OF_PERICENTER = 192.8297
MEAN_ANOMALY   = 122.4088

EPHEMERIS_TYPE = 0
CLASSIFICATION_TYPE = U
NORAD_CAT_ID   = 67227
ELEMENT_SET_NO = 999
REV_AT_EPOCH   = 45
BSTAR          = .22316231E-2
MEAN_MOTION_DOT = .8109E-4
MEAN_MOTION_DDOT = 0

CCSDS_OMM_VERS = 2.0
CREATION_DATE  = 
ORIGINATOR     = 

OBJECT_NAME    = QPS-SAR-15
OBJECT_ID      = 2025-307A
CENTER_NAME    = EARTH
REF_FRAME      = TEME
TIME_SYSTEM    = UTC
MEAN_ELEMENT_THEORY = SGP/SGP4

EPOCH          = 2026-01-13T01:07:07.616352
MEAN_MOTION    = 14.97354691
ECCENTRICITY   = .000787
INCLINATION    = 42.0082
RA_OF_ASC_NODE = 358.8894
ARG_OF_PERICENTER = 54.7303
MEAN_ANOMALY   = 305.4257

EPHEMERIS_TYPE = 0
CLASSIFICATION_TYPE = U
NORAD_CAT_ID   = 67228
ELEMENT_SET_NO = 999
REV_AT_EPOCH   = 341
BSTAR          = .33942E-3
MEAN_MOTION_DOT = .383E-4
MEAN_MOTION_DDOT = 0

CCSDS_OMM_VERS = 2.0
CREATION_DATE  = 
ORIGINATOR     = 

OBJECT_NAME    = ELECTRON R/B
OBJECT_ID      = 2025-307B
CENTER_NAME    = EARTH
REF_FRAME      = TEME
TIME_SYSTEM    = UTC
MEAN_ELEMENT_THEORY = SGP/SGP4

EPOCH          = 2026-01-13T04:32:00.750912
MEAN_MOTION    = 15.84255775
ECCENTRICITY   = .0147343
INCLINATION    = 41.9926
RA_OF_ASC_NODE = 344.0589
ARG_OF_PERICENTER = 44.6636
MEAN_ANOMALY   = 316.5981

EPHEMERIS_TYPE = 0
CLASSIFICATION_TYPE = U
NORAD_CAT_ID   = 67229
ELEMENT_SET_NO = 999
REV_AT_EPOCH   = 359
BSTAR          = .15451E-2
MEAN_MOTION_DOT = .881196E-2
MEAN_MOTION_DDOT = .29979E-3

CCSDS_OMM_VERS = 2.0
CREATION_DATE  = 
ORIGINATOR     = 

OBJECT_NAME    = ELECTRON KICK STAGE R/B
OBJECT_ID      = 2025-307C
CENTER_NAME    = EARTH
REF_FRAME      = TEME
TIME_SYSTEM    = UTC
MEAN_ELEMENT_THEORY = SGP/SGP4

EPOCH          = 2026-01-13T04:38:43.329984
MEAN_MOTION    = 16.08676118
ECCENTRICITY   = .0086024
INCLINATION    = 41.9987
RA_OF_ASC_NODE = 342.3281
ARG_OF_PERICENTER = 79.7601
MEAN_ANOMALY   = 281.2951

EPHEMERIS_TYPE = 0
CLASSIFICATION_TYPE = U
NORAD_CAT_ID   = 67230
ELEMENT_SET_NO = 999
REV_AT_EPOCH   = 201
BSTAR          = .16302E-2
MEAN_MOTION_DOT = .2618338E-1
MEAN_MOTION_DDOT = .8131E-5

